[
    {
        "Altitude(m)": 706093.1213967076,
        "Argument of Periapsis(deg)": 0.0022780242373254137,
        "Eccentricity": 0.0,
        "Inclination(deg)": 45.0,
        "Latitude(deg)": -13.213887218325251,
        "Longitude(deg)": 8.375536850595477,
        "Mean Anomaly(deg)": -161.32975667050383,
        "RAAN(deg)": 274.9978496117084,
        "Satellite Name": "Constellation 1 1222",
        "Satellite Number": 1222,
        "Semi-Major Axis(m)": 7083131.272910544,
        "Time(s)": 38
    },
    {
        "Altitude(m)": 706104.3556694562,
        "Argument of Periapsis(deg)": 0.002337972243570819,
        "Eccentricity": 0.0,
        "Inclination(deg)": 45.0,
        "Latitude(deg)": -13.255855938081687,
        "Longitude(deg)": 8.41661188910374,
        "Mean Anomaly(deg)": -161.26905553025398,
        "RAAN(deg)": 274.9977930225428,
        "Satellite Name": "Constellation 1 1222",
        "Satellite Number": 1222,
        "Semi-Major Axis(m)": 7083131.272910544,
        "Time(s)": 39
    },
    {
        "Altitude(m)": 706115.604314928,
        "Argument of Periapsis(deg)": 0.0023979202498162246,
        "Eccentricity": 0.0,
        "Inclination(deg)": 45.0,
        "Latitude(deg)": -13.2978164234035,
        "Longitude(deg)": 8.457702313385138,
        "Mean Anomaly(deg)": -161.208354390004,
        "RAAN(deg)": 274.9977364333772,
        "Satellite Name": "Constellation 1 1222",
        "Satellite Number": 1222,
        "Semi-Major Axis(m)": 7083131.272910544,
        "Time(s)": 40
    },
    {
        "Altitude(m)": 706126.8673002045,
        "Argument of Periapsis(deg)": 0.00245786825606163,
        "Eccentricity": 0.0,
        "Inclination(deg)": 45.0,
        "Latitude(deg)": -13.339768644951455,
        "Longitude(deg)": 8.49880817644564,
        "Mean Anomaly(deg)": -161.14765324975414,
        "RAAN(deg)": 274.99767984421163,
        "Satellite Name": "Constellation 1 1222",
        "Satellite Number": 1222,
        "Semi-Major Axis(m)": 7083131.272910544,
        "Time(s)": 41
    },
    {
        "Altitude(m)": 706138.1445922857,
        "Argument of Periapsis(deg)": 0.002517816262307036,
        "Eccentricity": 0.0,
        "Inclination(deg)": 45.0,
        "Latitude(deg)": -13.381712573357166,
        "Longitude(deg)": 8.539929531319226,
        "Mean Anomaly(deg)": -161.08695210950427,
        "RAAN(deg)": 274.99762325504605,
        "Satellite Name": "Constellation 1 1222",
        "Satellite Number": 1222,
        "Semi-Major Axis(m)": 7083131.272910544,
        "Time(s)": 42
    },
    {
        "Altitude(m)": 706149.4361581091,
        "Argument of Periapsis(deg)": 0.0025777642685524413,
        "Eccentricity": 0.0,
        "Inclination(deg)": 45.0,
        "Latitude(deg)": -13.423648179222408,
        "Longitude(deg)": 8.581066431067844,
        "Mean Anomaly(deg)": -161.02625096925433,
        "RAAN(deg)": 274.9975666658805,
        "Satellite Name": "Constellation 1 1222",
        "Satellite Number": 1222,
        "Semi-Major Axis(m)": 7083131.272910544,
        "Time(s)": 43
    },
    {
        "Altitude(m)": 706160.741964542,
        "Argument of Periapsis(deg)": 0.002637712274797847,
        "Eccentricity": 0.0,
        "Inclination(deg)": 45.0,
        "Latitude(deg)": -13.465575433119398,
        "Longitude(deg)": 8.622218760684504,
        "Mean Anomaly(deg)": -160.9655498290044,
        "RAAN(deg)": 274.99751007671495,
        "Satellite Name": "Constellation 1 1222",
        "Satellite Number": 1222,
        "Semi-Major Axis(m)": 7083131.272910544,
        "Time(s)": 44
    },
    {
        "Altitude(m)": 706172.0619783704,
        "Argument of Periapsis(deg)": 0.0026976602810432526,
        "Eccentricity": 0.0,
        "Inclination(deg)": 45.0,
        "Latitude(deg)": -13.507494305589518,
        "Longitude(deg)": 8.663386909481401,
        "Mean Anomaly(deg)": -160.90484868875453,
        "RAAN(deg)": 274.9974534875494,
        "Satellite Name": "Constellation 1 1222",
        "Satellite Number": 1222,
        "Semi-Major Axis(m)": 7083131.272910544,
        "Time(s)": 45
    },
    {
        "Altitude(m)": 706183.396166323,
        "Argument of Periapsis(deg)": 0.0027576082872886585,
        "Eccentricity": 0.0,
        "Inclination(deg)": 45.0,
        "Latitude(deg)": -13.549404767145155,
        "Longitude(deg)": 8.704570762507828,
        "Mean Anomaly(deg)": -160.84414754850462,
        "RAAN(deg)": 274.9973968983838,
        "Satellite Name": "Constellation 1 1222",
        "Satellite Number": 1222,
        "Semi-Major Axis(m)": 7083131.272910544,
        "Time(s)": 46
    },
    {
        "Altitude(m)": 706194.7444950521,
        "Argument of Periapsis(deg)": 0.0028175562935340644,
        "Eccentricity": 0.0,
        "Inclination(deg)": 45.0,
        "Latitude(deg)": -13.591306788268172,
        "Longitude(deg)": 8.74577037293824,
        "Mean Anomaly(deg)": -160.78344640825478,
        "RAAN(deg)": 274.9973403092182,
        "Satellite Name": "Constellation 1 1222",
        "Satellite Number": 1222,
        "Semi-Major Axis(m)": 7083131.272910544,
        "Time(s)": 47
    },
    {
        "Altitude(m)": 706206.106931134,
        "Argument of Periapsis(deg)": 0.00287750429977947,
        "Eccentricity": 0.0,
        "Inclination(deg)": 45.0,
        "Latitude(deg)": -13.63320033941035,
        "Longitude(deg)": 8.786985793975688,
        "Mean Anomaly(deg)": -160.72274526800484,
        "RAAN(deg)": 274.9972837200527,
        "Satellite Name": "Constellation 1 1222",
        "Satellite Number": 1222,
        "Semi-Major Axis(m)": 7083131.272910544,
        "Time(s)": 48
    },
    {
        "Altitude(m)": 706217.4834410932,
        "Argument of Periapsis(deg)": 0.002937452306024875,
        "Eccentricity": 0.0,
        "Inclination(deg)": 45.0,
        "Latitude(deg)": -13.67508539099283,
        "Longitude(deg)": 8.828217078851003,
        "Mean Anomaly(deg)": -160.662044127755,
        "RAAN(deg)": 274.9972271308871,
        "Satellite Name": "Constellation 1 1222",
        "Satellite Number": 1222,
        "Semi-Major Axis(m)": 7083131.272910544,
        "Time(s)": 49
    },
    {
        "Altitude(m)": 706228.8739913636,
        "Argument of Periapsis(deg)": 0.0029974003122702807,
        "Eccentricity": 0.0,
        "Inclination(deg)": 45.0,
        "Latitude(deg)": -13.716961913406633,
        "Longitude(deg)": 8.869464280823845,
        "Mean Anomaly(deg)": -160.60134298750503,
        "RAAN(deg)": 274.9971705417216,
        "Satellite Name": "Constellation 1 1222",
        "Satellite Number": 1222,
        "Semi-Major Axis(m)": 7083131.272910544,
        "Time(s)": 50
    },
    {
        "Altitude(m)": 706240.2785483191,
        "Argument of Periapsis(deg)": 0.0030573483185156866,
        "Eccentricity": 0.0,
        "Inclination(deg)": 45.0,
        "Latitude(deg)": -13.758829877011973,
        "Longitude(deg)": 8.910727453181856,
        "Mean Anomaly(deg)": -160.54064184725513,
        "RAAN(deg)": 274.99711395255594,
        "Satellite Name": "Constellation 1 1222",
        "Satellite Number": 1222,
        "Semi-Major Axis(m)": 7083131.272910544,
        "Time(s)": 51
    },
    {
        "Altitude(m)": 706251.697078269,
        "Argument of Periapsis(deg)": 0.003117296324761092,
        "Eccentricity": 0.0,
        "Inclination(deg)": 45.0,
        "Latitude(deg)": -13.800689252138858,
        "Longitude(deg)": 8.95200648114451,
        "Mean Anomaly(deg)": -160.47994070700528,
        "RAAN(deg)": 274.99705736339035,
        "Satellite Name": "Constellation 1 1222",
        "Satellite Number": 1222,
        "Semi-Major Axis(m)": 7083131.272910544,
        "Time(s)": 52
    },
    {
        "Altitude(m)": 706263.1295474453,
        "Argument of Periapsis(deg)": 0.0031772443310064975,
        "Eccentricity": 0.0,
        "Inclination(deg)": 45.0,
        "Latitude(deg)": -13.842540009085633,
        "Longitude(deg)": 8.993301754250766,
        "Mean Anomaly(deg)": -160.41923956675532,
        "RAAN(deg)": 274.99700077422483,
        "Satellite Name": "Constellation 1 1222",
        "Satellite Number": 1222,
        "Semi-Major Axis(m)": 7083131.272910544,
        "Time(s)": 53
    },
    {
        "Altitude(m)": 706274.5759220117,
        "Argument of Periapsis(deg)": 0.0032371923372519038,
        "Eccentricity": 0.0,
        "Inclination(deg)": 45.0,
        "Latitude(deg)": -13.88438211812049,
        "Longitude(deg)": 9.034613157776686,
        "Mean Anomaly(deg)": -160.35853842650548,
        "RAAN(deg)": 274.99694418505925,
        "Satellite Name": "Constellation 1 1222",
        "Satellite Number": 1222,
        "Semi-Major Axis(m)": 7083131.272910544,
        "Time(s)": 54
    },
    {
        "Altitude(m)": 706286.0361680621,
        "Argument of Periapsis(deg)": 0.0032971403434973088,
        "Eccentricity": 0.0,
        "Inclination(deg)": 45.0,
        "Latitude(deg)": -13.92621554948054,
        "Longitude(deg)": 9.075940745124413,
        "Mean Anomaly(deg)": -160.29783728625563,
        "RAAN(deg)": 274.9968875958937,
        "Satellite Name": "Constellation 1 1222",
        "Satellite Number": 1222,
        "Semi-Major Axis(m)": 7083131.272910544,
        "Time(s)": 55
    },
    {
        "Altitude(m)": 706297.5102516285,
        "Argument of Periapsis(deg)": 0.0033570883497427146,
        "Eccentricity": 0.0,
        "Inclination(deg)": 45.0,
        "Latitude(deg)": -13.968040273371852,
        "Longitude(deg)": 9.117284569724488,
        "Mean Anomaly(deg)": -160.23713614600564,
        "RAAN(deg)": 274.9968310067281,
        "Satellite Name": "Constellation 1 1222",
        "Satellite Number": 1222,
        "Semi-Major Axis(m)": 7083131.272910544,
        "Time(s)": 56
    }
]